CCSDS_OMM_VERS = 2.0
CREATION_DATE  = 
ORIGINATOR     = 

OBJECT_NAME    = STARLINK-36342
OBJECT_ID      = 2026-022B
CENTER_NAME    = EARTH
REF_FRAME      = TEME
TIME_SYSTEM    = UTC
MEAN_ELEMENT_THEORY = SGP/SGP4

EPOCH          = 2026-02-09T22:00:03.000096
MEAN_MOTION    = 15.94664576
ECCENTRICITY   = .00013619
INCLINATION    = 97.2831
RA_OF_ASC_NODE = 73.4297
ARG_OF_PERICENTER = 86.8721
MEAN_ANOMALY   = 164.6016

EPHEMERIS_TYPE = 0
CLASSIFICATION_TYPE = U
NORAD_CAT_ID   = 67649
ELEMENT_SET_NO = 999
REV_AT_EPOCH   = 242
BSTAR          = -.45590752E-2
MEAN_MOTION_DOT = -.1710806E-1
MEAN_MOTION_DDOT = .83675886E-3

CCSDS_OMM_VERS = 2.0
CREATION_DATE  = 
ORIGINATOR     = 

OBJECT_NAME    = STARLINK-36703
OBJECT_ID      = 2026-022C
CENTER_NAME    = EARTH
REF_FRAME      = TEME
TIME_SYSTEM    = UTC
MEAN_ELEMENT_THEORY = SGP/SGP4

EPOCH          = 2026-02-09T22:00:03.000096
MEAN_MOTION    = 15.94845706
ECCENTRICITY   = .00014015
INCLINATION    = 97.2830
RA_OF_ASC_NODE = 73.4310
ARG_OF_PERICENTER = 79.4155
MEAN_ANOMALY   = 174.8641

EPHEMERIS_TYPE = 0
CLASSIFICATION_TYPE = U
NORAD_CAT_ID   = 67650
ELEMENT_SET_NO = 999
REV_AT_EPOCH   = 242
BSTAR          = -.45187144E-2
MEAN_MOTION_DOT = -.1712007E-1
MEAN_MOTION_DDOT = .8394514E-3

CCSDS_OMM_VERS = 2.0
CREATION_DATE  = 
ORIGINATOR     = 

OBJECT_NAME    = STARLINK-36696
OBJECT_ID      = 2026-022D
CENTER_NAME    = EARTH
REF_FRAME      = TEME
TIME_SYSTEM    = UTC
MEAN_ELEMENT_THEORY = SGP/SGP4

EPOCH          = 2026-02-09T22:00:03.000096
MEAN_MOTION    = 15.95032833
ECCENTRICITY   = .00013504
INCLINATION    = 97.2827
RA_OF_ASC_NODE = 73.4321
ARG_OF_PERICENTER = 79.1332
MEAN_ANOMALY   = 178.0837

EPHEMERIS_TYPE = 0
CLASSIFICATION_TYPE = U
NORAD_CAT_ID   = 67651
ELEMENT_SET_NO = 999
REV_AT_EPOCH   = 242
BSTAR          = -.44577965E-2
MEAN_MOTION_DOT = -.1705851E-1
MEAN_MOTION_DDOT = .83548284E-3

CCSDS_OMM_VERS = 2.0
CREATION_DATE  = 
ORIGINATOR     = 

OBJECT_NAME    = STARLINK-36699
OBJECT_ID      = 2026-022E
CENTER_NAME    = EARTH
REF_FRAME      = TEME
TIME_SYSTEM    = UTC
MEAN_ELEMENT_THEORY = SGP/SGP4

EPOCH          = 2026-02-09T22:00:03.000096
MEAN_MOTION    = 15.95193972
ECCENTRICITY   = .00012789
INCLINATION    = 97.2827
RA_OF_ASC_NODE = 73.4332
ARG_OF_PERICENTER = 85.2510
MEAN_ANOMALY   = 174.5007

EPHEMERIS_TYPE = 0
CLASSIFICATION_TYPE = U
NORAD_CAT_ID   = 67652
ELEMENT_SET_NO = 999
REV_AT_EPOCH   = 242
BSTAR          = -.44180568E-2
MEAN_MOTION_DOT = -.1705192E-1
MEAN_MOTION_DDOT = .83630186E-3

CCSDS_OMM_VERS = 2.0
CREATION_DATE  = 
ORIGINATOR     = 

OBJECT_NAME    = STARLINK-36694
OBJECT_ID      = 2026-022F
CENTER_NAME    = EARTH
REF_FRAME      = TEME
TIME_SYSTEM    = UTC
MEAN_ELEMENT_THEORY = SGP/SGP4

EPOCH          = 2026-02-09T22:00:03.000096
MEAN_MOTION    = 15.95398418
ECCENTRICITY   = .00012239
INCLINATION    = 97.2826
RA_OF_ASC_NODE = 73.4347
ARG_OF_PERICENTER = 87.4623
MEAN_ANOMALY   = 175.4927

EPHEMERIS_TYPE = 0
CLASSIFICATION_TYPE = U
NORAD_CAT_ID   = 67653
ELEMENT_SET_NO = 999
REV_AT_EPOCH   = 242
BSTAR          = -.43238616E-2
MEAN_MOTION_DOT = -.1687327E-1
MEAN_MOTION_DDOT = .82183147E-3

CCSDS_OMM_VERS = 2.0
CREATION_DATE  = 
ORIGINATOR     = 

OBJECT_NAME    = STARLINK-36620
OBJECT_ID      = 2026-022G
CENTER_NAME    = EARTH
REF_FRAME      = TEME
TIME_SYSTEM    = UTC
MEAN_ELEMENT_THEORY = SGP/SGP4

EPOCH          = 2026-02-09T22:00:03.000096
MEAN_MOTION    = 15.95579460
ECCENTRICITY   = .00013455
INCLINATION    = 97.2823
RA_OF_ASC_NODE = 73.4357
ARG_OF_PERICENTER = 83.0756
MEAN_ANOMALY   = 182.6961

EPHEMERIS_TYPE = 0
CLASSIFICATION_TYPE = U
NORAD_CAT_ID   = 67654
ELEMENT_SET_NO = 999
REV_AT_EPOCH   = 242
BSTAR          = -.42899233E-2
MEAN_MOTION_DOT = -.169035E-1
MEAN_MOTION_DDOT = .82616198E-3

CCSDS_OMM_VERS = 2.0
CREATION_DATE  = 
ORIGINATOR     = 

OBJECT_NAME    = STARLINK-36720
OBJECT_ID      = 2026-022H
CENTER_NAME    = EARTH
REF_FRAME      = TEME
TIME_SYSTEM    = UTC
MEAN_ELEMENT_THEORY = SGP/SGP4

EPOCH          = 2026-02-09T22:00:03.000096
MEAN_MOTION    = 15.95792747
ECCENTRICITY   = .00012805
INCLINATION    = 97.2824
RA_OF_ASC_NODE = 73.4373
ARG_OF_PERICENTER = 83.9133
MEAN_ANOMALY   = 185.0999

EPHEMERIS_TYPE = 0
CLASSIFICATION_TYPE = U
NORAD_CAT_ID   = 67655
ELEMENT_SET_NO = 999
REV_AT_EPOCH   = 242
BSTAR          = -.42275293E-2
MEAN_MOTION_DOT = -.1684955E-1
MEAN_MOTION_DDOT = .8231234E-3

CCSDS_OMM_VERS = 2.0
CREATION_DATE  = 
ORIGINATOR     = 

OBJECT_NAME    = STARLINK-36688
OBJECT_ID      = 2026-022J
CENTER_NAME    = EARTH
REF_FRAME      = TEME
TIME_SYSTEM    = UTC
MEAN_ELEMENT_THEORY = SGP/SGP4

EPOCH          = 2026-02-09T22:00:03.000096
MEAN_MOTION    = 15.95945835
ECCENTRICITY   = .00013623
INCLINATION    = 97.2820
RA_OF_ASC_NODE = 73.4379
ARG_OF_PERICENTER = 75.3585
MEAN_ANOMALY   = 196.0709

EPHEMERIS_TYPE = 0
CLASSIFICATION_TYPE = U
NORAD_CAT_ID   = 67656
ELEMENT_SET_NO = 999
REV_AT_EPOCH   = 242
BSTAR          = -.41978249E-2
MEAN_MOTION_DOT = -.1686918E-1
MEAN_MOTION_DDOT = .82626182E-3

CCSDS_OMM_VERS = 2.0
CREATION_DATE  = 
ORIGINATOR     = 

OBJECT_NAME    = STARLINK-36706
OBJECT_ID      = 2026-022K
CENTER_NAME    = EARTH
REF_FRAME      = TEME
TIME_SYSTEM    = UTC
MEAN_ELEMENT_THEORY = SGP/SGP4

EPOCH          = 2026-02-09T22:00:03.000096
MEAN_MOTION    = 15.96118300
ECCENTRICITY   = .00012217
INCLINATION    = 97.2817
RA_OF_ASC_NODE = 73.4388
ARG_OF_PERICENTER = 83.1291
MEAN_ANOMALY   = 191.0498

EPHEMERIS_TYPE = 0
CLASSIFICATION_TYPE = U
NORAD_CAT_ID   = 67657
ELEMENT_SET_NO = 999
REV_AT_EPOCH   = 239
BSTAR          = -.41338156E-2
MEAN_MOTION_DOT = -.1676766E-1
MEAN_MOTION_DDOT = .81852933E-3

CCSDS_OMM_VERS = 2.0
CREATION_DATE  = 
ORIGINATOR     = 

OBJECT_NAME    = STARLINK-36701
OBJECT_ID      = 2026-022L
CENTER_NAME    = EARTH
REF_FRAME      = TEME
TIME_SYSTEM    = UTC
MEAN_ELEMENT_THEORY = SGP/SGP4

EPOCH          = 2026-02-09T22:00:03.000096
MEAN_MOTION    = 15.96313586
ECCENTRICITY   = .00013458
INCLINATION    = 97.2817
RA_OF_ASC_NODE = 73.4407
ARG_OF_PERICENTER = 83.7826
MEAN_ANOMALY   = 193.4044

EPHEMERIS_TYPE = 0
CLASSIFICATION_TYPE = U
NORAD_CAT_ID   = 67658
ELEMENT_SET_NO = 999
REV_AT_EPOCH   = 242
BSTAR          = -.4071925E-2
MEAN_MOTION_DOT = -.1669258E-1
MEAN_MOTION_DDOT = .81341765E-3

CCSDS_OMM_VERS = 2.0
CREATION_DATE  = 
ORIGINATOR     = 

OBJECT_NAME    = STARLINK-36642
OBJECT_ID      = 2026-022M
CENTER_NAME    = EARTH
REF_FRAME      = TEME
TIME_SYSTEM    = UTC
MEAN_ELEMENT_THEORY = SGP/SGP4

EPOCH          = 2026-02-09T22:00:03.000096
MEAN_MOTION    = 15.96443444
ECCENTRICITY   = .00012401
INCLINATION    = 97.2819
RA_OF_ASC_NODE = 73.4418
ARG_OF_PERICENTER = 86.6653
MEAN_ANOMALY   = 192.7651

EPHEMERIS_TYPE = 0
CLASSIFICATION_TYPE = U
NORAD_CAT_ID   = 67659
ELEMENT_SET_NO = 999
REV_AT_EPOCH   = 242
BSTAR          = -.40068392E-2
MEAN_MOTION_DOT = -.1654292E-1
MEAN_MOTION_DDOT = .80100685E-3

CCSDS_OMM_VERS = 2.0
CREATION_DATE  = 
ORIGINATOR     = 

OBJECT_NAME    = STARLINK-36673
OBJECT_ID      = 2026-022N
CENTER_NAME    = EARTH
REF_FRAME      = TEME
TIME_SYSTEM    = UTC
MEAN_ELEMENT_THEORY = SGP/SGP4

EPOCH          = 2026-02-09T22:00:03.000096
MEAN_MOTION    = 15.96640468
ECCENTRICITY   = .00012484
INCLINATION    = 97.2813
RA_OF_ASC_NODE = 73.4425
ARG_OF_PERICENTER = 86.2969
MEAN_ANOMALY   = 196.1095

EPHEMERIS_TYPE = 0
CLASSIFICATION_TYPE = U
NORAD_CAT_ID   = 67660
ELEMENT_SET_NO = 999
REV_AT_EPOCH   = 242
BSTAR          = -.39681879E-2
MEAN_MOTION_DOT = -.1655879E-1
MEAN_MOTION_DDOT = .80414078E-3

