STARLINK-36342          
1 67649U 26022B   26040.91670139 -.01710806  83676-3 -45591-2 0  9996
2 67649  97.2831  73.4297 0001361  86.8721 164.6016 15.94664576  2424
STARLINK-36703          
1 67650U 26022C   26040.91670139 -.01712007  83945-3 -45187-2 0  9993
2 67650  97.2830  73.4310 0001401  79.4155 174.8641 15.94845706  2428
STARLINK-36696          
1 67651U 26022D   26040.91670139 -.01705851  83548-3 -44578-2 0  9995
2 67651  97.2827  73.4321 0001350  79.1332 178.0837 15.95032833  2427
STARLINK-36699          
1 67652U 26022E   26040.91670139 -.01705192  83630-3 -44181-2 0  9996
2 67652  97.2827  73.4332 0001278  85.2510 174.5007 15.95193972  2427
STARLINK-36694          
1 67653U 26022F   26040.91670139 -.01687327  82183-3 -43239-2 0  9991
2 67653  97.2826  73.4347 0001223  87.4623 175.4927 15.95398418  2425
STARLINK-36620          
1 67654U 26022G   26040.91670139 -.01690350  82616-3 -42899-2 0  9994
2 67654  97.2823  73.4357 0001345  83.0756 182.6961 15.95579460  2424
STARLINK-36720          
1 67655U 26022H   26040.91670139 -.01684955  82312-3 -42275-2 0  9990
2 67655  97.2824  73.4373 0001280  83.9133 185.0999 15.95792747  2423
STARLINK-36688          
1 67656U 26022J   26040.91670139 -.01686918  82626-3 -41978-2 0  9999
2 67656  97.2820  73.4379 0001362  75.3585 196.0709 15.95945835  2422
STARLINK-36706          
1 67657U 26022K   26040.91670139 -.01676766  81853-3 -41338-2 0  9991
2 67657  97.2817  73.4388 0001221  83.1291 191.0498 15.96118300  2390
STARLINK-36701          
1 67658U 26022L   26040.91670139 -.01669258  81342-3 -40719-2 0  9995
2 67658  97.2817  73.4407 0001345  83.7826 193.4044 15.96313586  2420
STARLINK-36642          
1 67659U 26022M   26040.91670139 -.01654292  80101-3 -40068-2 0  9997
2 67659  97.2819  73.4418 0001240  86.6653 192.7651 15.96443444  2422
STARLINK-36673          
1 67660U 26022N   26040.91670139 -.01655879  80414-3 -39682-2 0  9998
2 67660  97.2813  73.4425 0001248  86.2969 196.1095 15.96640468  2425
